{
  "name": "SATGUS",
  "line1": "1 62713U 25009DJ  26143.19856830  .00004719  00000+0  37562-3 0  9997",
  "line2": "2 62713  97.6995 224.8139 0008483 183.8644 176.2516 15.00845788 73815",
  "fetched_at": "2026-05-24T00:44:50.986345+00:00"
}